FLOCK 4Q-16             
1 58271U 23174R   26188.18516812  .00014146  00000+0  25254-3 0  9993
2 58271  97.3823 276.7690 0007020 100.0587 260.1457 15.50141131148677
FLOCK 4Q-11             
1 58273U 23174T   26188.22524791  .00020030  00000+0  35097-3 0  9990
2 58273  97.3857 277.4360 0006854  95.5232 264.6801 15.50594550148698
FLOCK 4Q-28             
1 58280U 23174AA  26188.05088361  .00025164  00000+0  35722-3 0  9995
2 58280  97.3877 279.9173 0005498  88.4109 271.7776 15.56400112148836
FLOCK 4Q-27             
1 58282U 23174AC  26188.24654257  .00022262  00000+0  31390-3 0  9994
2 58282  97.3802 279.5319 0004625  91.5254 268.6531 15.56611258148874
FLOCK 4Q-7              
1 58318U 23174BQ  26188.20240201  .00028413  00000+0  39476-3 0  9997
2 58318  97.3903 280.3896 0005288  72.4428 287.7405 15.56959579148865
FLOCK 4Q-2              
1 58320U 23174BS  26188.46802554  .00017249  00000+0  30288-3 0  9990
2 58320  97.3833 277.4010 0005531  75.1771 285.0093 15.50575260148743
FLOCK 4Q-9              
1 58322U 23174BU  26188.03557135  .00022682  00000+0  39118-3 0  9995
2 58322  97.3854 277.0602 0006436  77.1247 283.0724 15.51023050148662
FLOCK 4Q-4              
1 58327U 23174BZ  26188.23586494  .00017695  00000+0  32141-3 0  9999
2 58327  97.3818 276.4031 0006313  96.7233 263.4737 15.49601731148663
FLOCK 4Q-13             
1 58328U 23174CA  26188.49414486  .00016883  00000+0  27566-3 0  9992
2 58328  97.4001 279.9161 0006442  78.7919 281.4058 15.52621855148822
FLOCK 4BE-18            
1 60480U 24149N   26187.67643088  .00014874  00000+0  34412-3 0  9994
2 60480  97.3719 271.6184 0004418 172.5556 187.5758 15.42564534105313
FLOCK 4BE-7             
1 60481U 24149P   26188.02702595  .00018577  00000+0  44899-3 0  9998
2 60481  97.3750 271.2759 0003703 170.7325 189.3991 15.41201300105309
FLOCK 4BE-36            
1 60486U 24149U   26188.02638873  .00013008  00000+0  29345-3 0  9993
2 60486  97.3735 272.7003 0004141 175.2705 184.8583 15.43353640105410
FLOCK 4BE-25            
1 60487U 24149V   26188.17767941  .00010672  00000+0  27493-3 0  9995
2 60487  97.3790 271.4701 0003132 160.0470 200.0899 15.39388814105319
FLOCK 4BE-31            
1 60488U 24149W   26187.71474985  .00017070  00000+0  36473-3 0  9995
2 60488  97.3790 273.3002 0003220 173.1498 186.9795 15.44906999105399
FLOCK 4BE-20            
1 60489U 24149X   26188.47615654  .00010268  00000+0  27088-3 0  9994
2 60489  97.3688 270.5986 0004380 174.5236 185.6058 15.38664199105337
FLOCK 4BE-23            
1 60490U 24149Y   26187.69118390  .00012296  00000+0  32872-3 0  9994
2 60490  97.3773 270.1963 0003826 180.2589 179.8655 15.38208639105199
