{"fetched_at":"2026-07-07T18:29:08.171Z","source":"https://celestrak.org/NORAD/elements/gp.php?GROUP=planet&FORMAT=JSON","constellation":"superdove","records":[{"OBJECT_NAME":"FLOCK 4Q-16","OBJECT_ID":"2023-174R","EPOCH":"2026-07-07T04:26:38.525568","CLASSIFICATION_TYPE":"U","MEAN_MOTION":15.50141131,"ECCENTRICITY":0.000702,"INCLINATION":97.3823,"RA_OF_ASC_NODE":276.769,"ARG_OF_PERICENTER":100.0587,"MEAN_ANOMALY":260.1457,"EPHEMERIS_TYPE":0,"NORAD_CAT_ID":58271,"ELEMENT_SET_NO":999,"REV_AT_EPOCH":14867,"BSTAR":0.00025254,"MEAN_MOTION_DOT":0.00014146,"MEAN_MOTION_DDOT":0},{"OBJECT_NAME":"FLOCK 4Q-11","OBJECT_ID":"2023-174T","EPOCH":"2026-07-07T05:24:21.419424","CLASSIFICATION_TYPE":"U","MEAN_MOTION":15.5059455,"ECCENTRICITY":0.0006854,"INCLINATION":97.3857,"RA_OF_ASC_NODE":277.436,"ARG_OF_PERICENTER":95.5232,"MEAN_ANOMALY":264.6801,"EPHEMERIS_TYPE":0,"NORAD_CAT_ID":58273,"ELEMENT_SET_NO":999,"REV_AT_EPOCH":14869,"BSTAR":0.00035097,"MEAN_MOTION_DOT":0.0002003,"MEAN_MOTION_DDOT":0},{"OBJECT_NAME":"FLOCK 4Q-28","OBJECT_ID":"2023-174AA","EPOCH":"2026-07-07T01:13:16.343904","CLASSIFICATION_TYPE":"U","MEAN_MOTION":15.56400112,"ECCENTRICITY":0.0005498,"INCLINATION":97.3877,"RA_OF_ASC_NODE":279.9173,"ARG_OF_PERICENTER":88.4109,"MEAN_ANOMALY":271.7776,"EPHEMERIS_TYPE":0,"NORAD_CAT_ID":58280,"ELEMENT_SET_NO":999,"REV_AT_EPOCH":14883,"BSTAR":0.00035722,"MEAN_MOTION_DOT":0.00025164,"MEAN_MOTION_DDOT":0},{"OBJECT_NAME":"FLOCK 4Q-27","OBJECT_ID":"2023-174AC","EPOCH":"2026-07-07T05:55:01.278048","CLASSIFICATION_TYPE":"U","MEAN_MOTION":15.56611258,"ECCENTRICITY":0.0004625,"INCLINATION":97.3802,"RA_OF_ASC_NODE":279.5319,"ARG_OF_PERICENTER":91.5254,"MEAN_ANOMALY":268.6531,"EPHEMERIS_TYPE":0,"NORAD_CAT_ID":58282,"ELEMENT_SET_NO":999,"REV_AT_EPOCH":14887,"BSTAR":0.0003139,"MEAN_MOTION_DOT":0.00022262,"MEAN_MOTION_DDOT":0},{"OBJECT_NAME":"FLOCK 4Q-7","OBJECT_ID":"2023-174BQ","EPOCH":"2026-07-07T04:51:27.533664","CLASSIFICATION_TYPE":"U","MEAN_MOTION":15.56959579,"ECCENTRICITY":0.0005288,"INCLINATION":97.3903,"RA_OF_ASC_NODE":280.3896,"ARG_OF_PERICENTER":72.4428,"MEAN_ANOMALY":287.7405,"EPHEMERIS_TYPE":0,"NORAD_CAT_ID":58318,"ELEMENT_SET_NO":999,"REV_AT_EPOCH":14886,"BSTAR":0.00039476,"MEAN_MOTION_DOT":0.00028413,"MEAN_MOTION_DDOT":0},{"OBJECT_NAME":"FLOCK 4Q-2","OBJECT_ID":"2023-174BS","EPOCH":"2026-07-07T11:13:57.406656","CLASSIFICATION_TYPE":"U","MEAN_MOTION":15.5057526,"ECCENTRICITY":0.0005531,"INCLINATION":97.3833,"RA_OF_ASC_NODE":277.401,"ARG_OF_PERICENTER":75.1771,"MEAN_ANOMALY":285.0093,"EPHEMERIS_TYPE":0,"NORAD_CAT_ID":58320,"ELEMENT_SET_NO":999,"REV_AT_EPOCH":14874,"BSTAR":0.00030288,"MEAN_MOTION_DOT":0.00017249,"MEAN_MOTION_DDOT":0},{"OBJECT_NAME":"FLOCK 4Q-9","OBJECT_ID":"2023-174BU","EPOCH":"2026-07-07T00:51:13.364640","CLASSIFICATION_TYPE":"U","MEAN_MOTION":15.5102305,"ECCENTRICITY":0.0006436,"INCLINATION":97.3854,"RA_OF_ASC_NODE":277.0602,"ARG_OF_PERICENTER":77.1247,"MEAN_ANOMALY":283.0724,"EPHEMERIS_TYPE":0,"NORAD_CAT_ID":58322,"ELEMENT_SET_NO":999,"REV_AT_EPOCH":14866,"BSTAR":0.00039118,"MEAN_MOTION_DOT":0.00022682,"MEAN_MOTION_DDOT":0},{"OBJECT_NAME":"FLOCK 4Q-4","OBJECT_ID":"2023-174BZ","EPOCH":"2026-07-07T05:39:38.730816","CLASSIFICATION_TYPE":"U","MEAN_MOTION":15.49601731,"ECCENTRICITY":0.0006313,"INCLINATION":97.3818,"RA_OF_ASC_NODE":276.4031,"ARG_OF_PERICENTER":96.7233,"MEAN_ANOMALY":263.4737,"EPHEMERIS_TYPE":0,"NORAD_CAT_ID":58327,"ELEMENT_SET_NO":999,"REV_AT_EPOCH":14866,"BSTAR":0.00032141,"MEAN_MOTION_DOT":0.00017695,"MEAN_MOTION_DDOT":0},{"OBJECT_NAME":"FLOCK 4Q-13","OBJECT_ID":"2023-174CA","EPOCH":"2026-07-07T11:51:34.115904","CLASSIFICATION_TYPE":"U","MEAN_MOTION":15.52621855,"ECCENTRICITY":0.0006442,"INCLINATION":97.4001,"RA_OF_ASC_NODE":279.9161,"ARG_OF_PERICENTER":78.7919,"MEAN_ANOMALY":281.4058,"EPHEMERIS_TYPE":0,"NORAD_CAT_ID":58328,"ELEMENT_SET_NO":999,"REV_AT_EPOCH":14882,"BSTAR":0.00027566,"MEAN_MOTION_DOT":0.00016883,"MEAN_MOTION_DDOT":0},{"OBJECT_NAME":"FLOCK 4BE-18","OBJECT_ID":"2024-149N","EPOCH":"2026-07-06T16:14:03.628032","CLASSIFICATION_TYPE":"U","MEAN_MOTION":15.42564534,"ECCENTRICITY":0.0004418,"INCLINATION":97.3719,"RA_OF_ASC_NODE":271.6184,"ARG_OF_PERICENTER":172.5556,"MEAN_ANOMALY":187.5758,"EPHEMERIS_TYPE":0,"NORAD_CAT_ID":60480,"ELEMENT_SET_NO":999,"REV_AT_EPOCH":10531,"BSTAR":0.00034412,"MEAN_MOTION_DOT":0.00014874,"MEAN_MOTION_DDOT":0},{"OBJECT_NAME":"FLOCK 4BE-7","OBJECT_ID":"2024-149P","EPOCH":"2026-07-07T00:38:55.042080","CLASSIFICATION_TYPE":"U","MEAN_MOTION":15.412013,"ECCENTRICITY":0.0003703,"INCLINATION":97.375,"RA_OF_ASC_NODE":271.2759,"ARG_OF_PERICENTER":170.7325,"MEAN_ANOMALY":189.3991,"EPHEMERIS_TYPE":0,"NORAD_CAT_ID":60481,"ELEMENT_SET_NO":999,"REV_AT_EPOCH":10530,"BSTAR":0.00044899,"MEAN_MOTION_DOT":0.00018577,"MEAN_MOTION_DDOT":0},{"OBJECT_NAME":"FLOCK 4BE-36","OBJECT_ID":"2024-149U","EPOCH":"2026-07-07T00:37:59.986272","CLASSIFICATION_TYPE":"U","MEAN_MOTION":15.4335364,"ECCENTRICITY":0.0004141,"INCLINATION":97.3735,"RA_OF_ASC_NODE":272.7003,"ARG_OF_PERICENTER":175.2705,"MEAN_ANOMALY":184.8583,"EPHEMERIS_TYPE":0,"NORAD_CAT_ID":60486,"ELEMENT_SET_NO":999,"REV_AT_EPOCH":10541,"BSTAR":0.00029345,"MEAN_MOTION_DOT":0.00013008,"MEAN_MOTION_DDOT":0},{"OBJECT_NAME":"FLOCK 4BE-25","OBJECT_ID":"2024-149V","EPOCH":"2026-07-07T04:15:51.501024","CLASSIFICATION_TYPE":"U","MEAN_MOTION":15.39388814,"ECCENTRICITY":0.0003132,"INCLINATION":97.379,"RA_OF_ASC_NODE":271.4701,"ARG_OF_PERICENTER":160.047,"MEAN_ANOMALY":200.0899,"EPHEMERIS_TYPE":0,"NORAD_CAT_ID":60487,"ELEMENT_SET_NO":999,"REV_AT_EPOCH":10531,"BSTAR":0.00027493,"MEAN_MOTION_DOT":0.00010672,"MEAN_MOTION_DDOT":0},{"OBJECT_NAME":"FLOCK 4BE-31","OBJECT_ID":"2024-149W","EPOCH":"2026-07-06T17:09:14.387040","CLASSIFICATION_TYPE":"U","MEAN_MOTION":15.44906999,"ECCENTRICITY":0.000322,"INCLINATION":97.379,"RA_OF_ASC_NODE":273.3002,"ARG_OF_PERICENTER":173.1498,"MEAN_ANOMALY":186.9795,"EPHEMERIS_TYPE":0,"NORAD_CAT_ID":60488,"ELEMENT_SET_NO":999,"REV_AT_EPOCH":10539,"BSTAR":0.00036473,"MEAN_MOTION_DOT":0.0001707,"MEAN_MOTION_DDOT":0},{"OBJECT_NAME":"FLOCK 4BE-20","OBJECT_ID":"2024-149X","EPOCH":"2026-07-07T11:25:39.925056","CLASSIFICATION_TYPE":"U","MEAN_MOTION":15.38664199,"ECCENTRICITY":0.000438,"INCLINATION":97.3688,"RA_OF_ASC_NODE":270.5986,"ARG_OF_PERICENTER":174.5236,"MEAN_ANOMALY":185.6058,"EPHEMERIS_TYPE":0,"NORAD_CAT_ID":60489,"ELEMENT_SET_NO":999,"REV_AT_EPOCH":10533,"BSTAR":0.00027088,"MEAN_MOTION_DOT":0.00010268,"MEAN_MOTION_DDOT":0},{"OBJECT_NAME":"FLOCK 4BE-23","OBJECT_ID":"2024-149Y","EPOCH":"2026-07-06T16:35:18.288960","CLASSIFICATION_TYPE":"U","MEAN_MOTION":15.38208639,"ECCENTRICITY":0.0003826,"INCLINATION":97.3773,"RA_OF_ASC_NODE":270.1963,"ARG_OF_PERICENTER":180.2589,"MEAN_ANOMALY":179.8655,"EPHEMERIS_TYPE":0,"NORAD_CAT_ID":60490,"ELEMENT_SET_NO":999,"REV_AT_EPOCH":10519,"BSTAR":0.00032872,"MEAN_MOTION_DOT":0.00012296,"MEAN_MOTION_DDOT":0}]}
